[{"OBJECT_NAME":"METOP-B","OBJECT_ID":"2012-049A","EPOCH":"2026-04-25T19:38:22.413408","MEAN_MOTION":14.21432951,"ECCENTRICITY":0.0003382,"INCLINATION":98.655,"RA_OF_ASC_NODE":168.351,"ARG_OF_PERICENTER":125.2958,"MEAN_ANOMALY":234.8537,"EPHEMERIS_TYPE":0,"CLASSIFICATION_TYPE":"U","NORAD_CAT_ID":38771,"ELEMENT_SET_NO":999,"REV_AT_EPOCH":70582,"BSTAR":6.3134e-5,"MEAN_MOTION_DOT":9.5e-7,"MEAN_MOTION_DDOT":0},{"OBJECT_NAME":"SARAL","OBJECT_ID":"2013-009A","EPOCH":"2026-04-25T19:22:32.735712","MEAN_MOTION":14.32842611,"ECCENTRICITY":0.0002994,"INCLINATION":98.5566,"RA_OF_ASC_NODE":303.036,"ARG_OF_PERICENTER":84.2866,"MEAN_ANOMALY":275.8659,"EPHEMERIS_TYPE":0,"CLASSIFICATION_TYPE":"U","NORAD_CAT_ID":39086,"ELEMENT_SET_NO":999,"REV_AT_EPOCH":68810,"BSTAR":5.0958e-5,"MEAN_MOTION_DOT":9.5e-7,"MEAN_MOTION_DDOT":0},{"OBJECT_NAME":"METOP-C","OBJECT_ID":"2018-087A","EPOCH":"2026-04-25T20:10:07.268160","MEAN_MOTION":14.21511565,"ECCENTRICITY":8.65e-5,"INCLINATION":98.668,"RA_OF_ASC_NODE":176.3914,"ARG_OF_PERICENTER":40.7694,"MEAN_ANOMALY":319.3548,"EPHEMERIS_TYPE":0,"CLASSIFICATION_TYPE":"U","NORAD_CAT_ID":43689,"ELEMENT_SET_NO":999,"REV_AT_EPOCH":38739,"BSTAR":6.2383e-5,"MEAN_MOTION_DOT":9.3e-7,"MEAN_MOTION_DDOT":0},{"OBJECT_NAME":"OTB-3-GAZELLE","OBJECT_ID":"2022-127A","EPOCH":"2026-04-25T16:41:45.005856","MEAN_MOTION":14.42654668,"ECCENTRICITY":0.0012951,"INCLINATION":98.3937,"RA_OF_ASC_NODE":108.204,"ARG_OF_PERICENTER":352.822,"MEAN_ANOMALY":7.2782,"EPHEMERIS_TYPE":0,"CLASSIFICATION_TYPE":"U","NORAD_CAT_ID":54023,"ELEMENT_SET_NO":999,"REV_AT_EPOCH":18679,"BSTAR":5.2889e-5,"MEAN_MOTION_DOT":1.33e-6,"MEAN_MOTION_DDOT":0},{"OBJECT_NAME":"EOS-6 (OCEANSAT-3)","OBJECT_ID":"2022-158A","EPOCH":"2026-04-25T19:36:38.649600","MEAN_MOTION":14.46978886,"ECCENTRICITY":0.0002295,"INCLINATION":98.3503,"RA_OF_ASC_NODE":214.7153,"ARG_OF_PERICENTER":107.9241,"MEAN_ANOMALY":252.2202,"EPHEMERIS_TYPE":0,"CLASSIFICATION_TYPE":"U","NORAD_CAT_ID":54361,"ELEMENT_SET_NO":999,"REV_AT_EPOCH":18026,"BSTAR":7.9513e-5,"MEAN_MOTION_DOT":2.46e-6,"MEAN_MOTION_DDOT":0},{"OBJECT_NAME":"KINEIS-1B","OBJECT_ID":"2024-114A","EPOCH":"2026-04-25T19:27:42.933312","MEAN_MOTION":14.80529629,"ECCENTRICITY":8.96e-5,"INCLINATION":97.9862,"RA_OF_ASC_NODE":140.2433,"ARG_OF_PERICENTER":253.009,"MEAN_ANOMALY":107.1024,"EPHEMERIS_TYPE":0,"CLASSIFICATION_TYPE":"U","NORAD_CAT_ID":60079,"ELEMENT_SET_NO":999,"REV_AT_EPOCH":9965,"BSTAR":0.00011292,"MEAN_MOTION_DOT":8.12e-6,"MEAN_MOTION_DDOT":0},{"OBJECT_NAME":"KINEIS-1C","OBJECT_ID":"2024-114C","EPOCH":"2026-04-25T20:16:22.156896","MEAN_MOTION":14.80532518,"ECCENTRICITY":0.0001756,"INCLINATION":97.9881,"RA_OF_ASC_NODE":140.1131,"ARG_OF_PERICENTER":60.2098,"MEAN_ANOMALY":299.9288,"EPHEMERIS_TYPE":0,"CLASSIFICATION_TYPE":"U","NORAD_CAT_ID":60081,"ELEMENT_SET_NO":999,"REV_AT_EPOCH":9963,"BSTAR":0.00011424,"MEAN_MOTION_DOT":8.22e-6,"MEAN_MOTION_DDOT":0},{"OBJECT_NAME":"KINEIS-1D","OBJECT_ID":"2024-114D","EPOCH":"2026-04-25T18:49:07.955040","MEAN_MOTION":14.76187192,"ECCENTRICITY":0.000209,"INCLINATION":97.9921,"RA_OF_ASC_NODE":136.4876,"ARG_OF_PERICENTER":51.7253,"MEAN_ANOMALY":308.4144,"EPHEMERIS_TYPE":0,"CLASSIFICATION_TYPE":"U","NORAD_CAT_ID":60082,"ELEMENT_SET_NO":999,"REV_AT_EPOCH":9939,"BSTAR":8.7139e-5,"MEAN_MOTION_DOT":5.52e-6,"MEAN_MOTION_DDOT":0},{"OBJECT_NAME":"KINEIS-1E","OBJECT_ID":"2024-114E","EPOCH":"2026-04-25T06:03:22.394592","MEAN_MOTION":14.80446587,"ECCENTRICITY":0.000233,"INCLINATION":97.931,"RA_OF_ASC_NODE":139.4409,"ARG_OF_PERICENTER":62.2351,"MEAN_ANOMALY":297.9097,"EPHEMERIS_TYPE":0,"CLASSIFICATION_TYPE":"U","NORAD_CAT_ID":60083,"ELEMENT_SET_NO":999,"REV_AT_EPOCH":9955,"BSTAR":-0.00023275,"MEAN_MOTION_DOT":-1.83e-5,"MEAN_MOTION_DDOT":0},{"OBJECT_NAME":"KINEIS-1A","OBJECT_ID":"2024-114F","EPOCH":"2026-04-25T19:52:02.003808","MEAN_MOTION":14.80479185,"ECCENTRICITY":0.0002679,"INCLINATION":97.9266,"RA_OF_ASC_NODE":140.1273,"ARG_OF_PERICENTER":317.1632,"MEAN_ANOMALY":42.9371,"EPHEMERIS_TYPE":0,"CLASSIFICATION_TYPE":"U","NORAD_CAT_ID":60084,"ELEMENT_SET_NO":999,"REV_AT_EPOCH":9964,"BSTAR":-0.00011231,"MEAN_MOTION_DOT":-9.11e-6,"MEAN_MOTION_DDOT":0},{"OBJECT_NAME":"KINEIS-3C","OBJECT_ID":"2024-172A","EPOCH":"2026-04-25T19:26:57.534432","MEAN_MOTION":14.72281126,"ECCENTRICITY":8.25e-5,"INCLINATION":98.041,"RA_OF_ASC_NODE":206.267,"ARG_OF_PERICENTER":29.9486,"MEAN_ANOMALY":330.1768,"EPHEMERIS_TYPE":0,"CLASSIFICATION_TYPE":"U","NORAD_CAT_ID":61220,"ELEMENT_SET_NO":999,"REV_AT_EPOCH":8536,"BSTAR":0.00032102,"MEAN_MOTION_DOT":1.978e-5,"MEAN_MOTION_DDOT":0},{"OBJECT_NAME":"KINEIS-3D","OBJECT_ID":"2024-172B","EPOCH":"2026-04-25T19:17:10.468032","MEAN_MOTION":14.72283242,"ECCENTRICITY":7.42e-5,"INCLINATION":98.0408,"RA_OF_ASC_NODE":206.2715,"ARG_OF_PERICENTER":41.0536,"MEAN_ANOMALY":319.0727,"EPHEMERIS_TYPE":0,"CLASSIFICATION_TYPE":"U","NORAD_CAT_ID":61221,"ELEMENT_SET_NO":999,"REV_AT_EPOCH":8564,"BSTAR":0.00032382,"MEAN_MOTION_DOT":1.996e-5,"MEAN_MOTION_DDOT":0},{"OBJECT_NAME":"KINEIS-3E","OBJECT_ID":"2024-172C","EPOCH":"2026-04-25T18:52:07.442400","MEAN_MOTION":14.72268993,"ECCENTRICITY":9.29e-5,"INCLINATION":98.0405,"RA_OF_ASC_NODE":206.2421,"ARG_OF_PERICENTER":91.3582,"MEAN_ANOMALY":268.7731,"EPHEMERIS_TYPE":0,"CLASSIFICATION_TYPE":"U","NORAD_CAT_ID":61222,"ELEMENT_SET_NO":999,"REV_AT_EPOCH":8564,"BSTAR":0.00027405,"MEAN_MOTION_DOT":1.681e-5,"MEAN_MOTION_DDOT":0},{"OBJECT_NAME":"KINEIS-3A","OBJECT_ID":"2024-172D","EPOCH":"2026-04-25T18:28:40.569600","MEAN_MOTION":14.72296619,"ECCENTRICITY":8.7e-5,"INCLINATION":98.0401,"RA_OF_ASC_NODE":206.3266,"ARG_OF_PERICENTER":220.0205,"MEAN_ANOMALY":140.0938,"EPHEMERIS_TYPE":0,"CLASSIFICATION_TYPE":"U","NORAD_CAT_ID":61223,"ELEMENT_SET_NO":999,"REV_AT_EPOCH":8506,"BSTAR":0.00027211,"MEAN_MOTION_DOT":1.67e-5,"MEAN_MOTION_DDOT":0},{"OBJECT_NAME":"KINEIS-3B","OBJECT_ID":"2024-172E","EPOCH":"2026-04-25T18:04:11.244288","MEAN_MOTION":14.72300978,"ECCENTRICITY":0.0001365,"INCLINATION":98.0396,"RA_OF_ASC_NODE":206.3362,"ARG_OF_PERICENTER":188.3227,"MEAN_ANOMALY":171.7958,"EPHEMERIS_TYPE":0,"CLASSIFICATION_TYPE":"U","NORAD_CAT_ID":61224,"ELEMENT_SET_NO":999,"REV_AT_EPOCH":8563,"BSTAR":0.00027265,"MEAN_MOTION_DOT":1.674e-5,"MEAN_MOTION_DDOT":0},{"OBJECT_NAME":"KINEIS-5C","OBJECT_ID":"2024-219A","EPOCH":"2026-04-25T20:44:21.135264","MEAN_MOTION":14.72300256,"ECCENTRICITY":0.0005433,"INCLINATION":97.9007,"RA_OF_ASC_NODE":276.1852,"ARG_OF_PERICENTER":90.7894,"MEAN_ANOMALY":269.3936,"EPHEMERIS_TYPE":0,"CLASSIFICATION_TYPE":"U","NORAD_CAT_ID":62081,"ELEMENT_SET_NO":999,"REV_AT_EPOCH":7605,"BSTAR":-8.0407e-6,"MEAN_MOTION_DOT":-9.9e-7,"MEAN_MOTION_DDOT":0},{"OBJECT_NAME":"KINEIS-5D","OBJECT_ID":"2024-219B","EPOCH":"2026-04-25T18:17:41.689248","MEAN_MOTION":14.72347656,"ECCENTRICITY":0.0006411,"INCLINATION":97.9098,"RA_OF_ASC_NODE":276.0274,"ARG_OF_PERICENTER":85.4075,"MEAN_ANOMALY":274.7865,"EPHEMERIS_TYPE":0,"CLASSIFICATION_TYPE":"U","NORAD_CAT_ID":62082,"ELEMENT_SET_NO":999,"REV_AT_EPOCH":7604,"BSTAR":0.00014378,"MEAN_MOTION_DOT":8.61e-6,"MEAN_MOTION_DDOT":0}]
