METOP-B                 
1 38771U 12049A   26115.81831497  .00000095  00000+0  63134-4 0  9992
2 38771  98.6550 168.3510 0003382 125.2958 234.8537 14.21432951705829
SARAL                   
1 39086U 13009A   26115.80732333  .00000095  00000+0  50958-4 0  9997
2 39086  98.5566 303.0360 0002994  84.2866 275.8659 14.32842611688107
METOP-C                 
1 43689U 18087A   26115.84036190  .00000093  00000+0  62383-4 0  9997
2 43689  98.6680 176.3914 0000865  40.7694 319.3548 14.21511565387393
OTB-3-GAZELLE           
1 54023U 22127A   26115.69565979  .00000133  00000+0  52889-4 0  9991
2 54023  98.3937 108.2040 0012951 352.8220   7.2782 14.42654668186793
EOS-6 (OCEANSAT-3)      
1 54361U 22158A   26115.81711400  .00000246  00000+0  79513-4 0  9994
2 54361  98.3503 214.7153 0002295 107.9241 252.2202 14.46978886180267
KINEIS-1B               
1 60079U 24114A   26115.81091358  .00000812  00000+0  11292-3 0  9992
2 60079  97.9862 140.2433 0000896 253.0090 107.1024 14.80529629 99654
KINEIS-1C               
1 60081U 24114C   26115.84470089  .00000822  00000+0  11424-3 0  9998
2 60081  97.9881 140.1131 0001756  60.2098 299.9288 14.80532518 99635
KINEIS-1D               
1 60082U 24114D   26115.78411985  .00000552  00000+0  87139-4 0  9999
2 60082  97.9921 136.4876 0002090  51.7253 308.4144 14.76187192 99394
KINEIS-1E               
1 60083U 24114E   26115.25234253 -.00001830  00000+0 -23275-3 0  9995
2 60083  97.9310 139.4409 0002330  62.2351 297.9097 14.80446587 99553
KINEIS-1A               
1 60084U 24114F   26115.82780097 -.00000911  00000+0 -11231-3 0  9999
2 60084  97.9266 140.1273 0002679 317.1632  42.9371 14.80479185 99645
KINEIS-3C               
1 61220U 24172A   26115.81038813  .00001978  00000+0  32102-3 0  9999
2 61220  98.0410 206.2670 0000825  29.9486 330.1768 14.72281126 85365
KINEIS-3D               
1 61221U 24172B   26115.80359338  .00001996  00000+0  32382-3 0  9997
2 61221  98.0408 206.2715 0000742  41.0536 319.0727 14.72283242 85645
KINEIS-3E               
1 61222U 24172C   26115.78619725  .00001681  00000+0  27405-3 0  9995
2 61222  98.0405 206.2421 0000929  91.3582 268.7731 14.72268993 85644
KINEIS-3A               
1 61223U 24172D   26115.76991400  .00001670  00000+0  27211-3 0  9990
2 61223  98.0401 206.3266 0000870 220.0205 140.0938 14.72296619 85060
KINEIS-3B               
1 61224U 24172E   26115.75290792  .00001674  00000+0  27265-3 0  9999
2 61224  98.0396 206.3362 0001365 188.3227 171.7958 14.72300978 85631
KINEIS-5C               
1 62081U 24219A   26115.86413351 -.00000099  00000+0 -80407-5 0  9994
2 62081  97.9007 276.1852 0005433  90.7894 269.3936 14.72300256 76050
KINEIS-5D               
1 62082U 24219B   26115.76228807  .00000861  00000+0  14378-3 0  9991
2 62082  97.9098 276.0274 0006411  85.4075 274.7865 14.72347656 76042
